QZS-1R                  
1 49336U 21096A   24294.77456946 -.00000236  00000+0  00000+0 0  9992
2 49336  36.2063  88.6252 0746630 270.3005  85.4633  1.00278984 10943
